BEIDOU-2 IGSO-1 (C06)   
1 36828U 10036A   26060.70878000 -.00000166  00000+0  00000+0 0  9993
2 36828  54.2920 163.9348 0053950 218.9920 137.0088  1.00252701 57016
BEIDOU-2 G4 (C04)       
1 37210U 10057A   26060.83539389 -.00000129  00000+0  00000+0 0  9999
2 37210   3.3798  69.5589 0009246 209.8140 340.9901  1.00271911 56214
BEIDOU-2 IGSO-2 (C07)   
1 37256U 10068A   26058.35181565 -.00000158  00000+0  00000+0 0  9996
2 37256  47.7414 273.1895 0047378 212.9968 264.9944  1.00260216 55694
BEIDOU-2 IGSO-3 (C08)   
1 37384U 11013A   26058.90884667 -.00000154  00000+0  00000+0 0  9999
2 37384  62.2642  41.1818 0035029 190.8154 358.7681  1.00294022 54567
BEIDOU-2 IGSO-4 (C09)   
1 37763U 11038A   26060.75143950 -.00000133  00000+0  00000+0 0  9993
2 37763  54.5889 166.6436 0154411 230.9971 126.9270  1.00265713 53567
BEIDOU-2 IGSO-5 (C10)   
1 37948U 11073A   26060.51498981 -.00000133  00000+0  00000+0 0  9998
2 37948  47.8731 272.8747 0108571 221.0681 305.9392  1.00272949 52059
BEIDOU-2 G5 (C05)       
1 38091U 12008A   26060.81531314  .00000040  00000+0  00000+0 0  9994
2 38091   3.3055  70.3213 0014150 249.4053 192.1361  1.00275354 51290
BEIDOU-2 M3 (C11)       
1 38250U 12018A   26060.26023843 -.00000050  00000+0  00000+0 0  9996
2 38250  55.8494 308.5146 0021337 279.5762  80.2419  1.86229696 93933
BEIDOU-2 M4 (C12)       
1 38251U 12018B   26058.58148709 -.00000045  00000+0  00000+0 0  9992
2 38251  55.7521 307.7944 0013045 286.0559  73.8564  1.86229541 93900
BEIDOU-2 M6 (C14)       
1 38775U 12050B   26060.43957670 -.00000002  00000+0  00000+0 0  9994
2 38775  56.4502  66.4556 0013892 341.5851  18.4024  1.86230857 91308
BEIDOU-2 G6 (C02)       
1 38953U 12059A   26060.67775057 -.00000191  00000+0  00000+0 0  9993
2 38953   4.1485  74.6730 0010301 301.6732 111.1049  1.00269510 48830
BEIDOU-3S IGSO-1S (C31) 
1 40549U 15019A   26060.62094985 -.00000158  00000+0  00000+0 0  9998
2 40549  49.3956 296.7575 0035836 190.3346 352.3565  1.00274284 39999
BEIDOU-3S M2S (C58)     
1 40748U 15037A   26060.39649149 -.00000046  00000+0  00000+0 0  9997
2 40748  54.9653 305.7593 0008961 278.3263  81.6321  1.86231732 72119
BEIDOU-3S M1S (C57)     
1 40749U 15037B   26060.08018090 -.00000045  00000+0  00000+0 0  9998
2 40749  54.9622 305.7581 0004531  29.0450 331.0396  1.86253680 72111
BEIDOU-2 IGSO-6 (C13)   
1 41434U 16021A   26060.39505934 -.00000141  00000+0  00000+0 0  9993
2 41434  60.0821  39.1080 0059813 233.4424 124.5580  1.00278678 36399
BEIDOU-2 G7 (C03)       
1 41586U 16037A   26060.82560050 -.00000370  00000+0  00000+0 0  9990
2 41586   1.4547  68.1508 0007345 341.4191 157.7907  1.00268497  5814
BEIDOU-3 M1 (C19)       
1 43001U 17069A   26059.66807218  .00000002  00000+0  00000+0 0  9991
2 43001  56.5977  66.6575 0012364 309.3656  50.5651  1.86230790 56584
BEIDOU-3 M2 (C20)       
1 43002U 17069B   26059.60656196  .00000002  00000+0  00000+0 0  9993
2 43002  56.5962  66.6958 0009614 328.4863  31.4966  1.86230525 56572
BEIDOU-3 M7 (C27)       
1 43107U 18003A   26060.42251110 -.00000048  00000+0  00000+0 0  9998
2 43107  54.4234 306.0742 0004627  70.8119 289.2972  1.86232214 55341
BEIDOU-3 M8 (C28)       
1 43108U 18003B   26060.36804606 -.00000048  00000+0  00000+0 0  9996
2 43108  54.4162 306.0591 0003209 293.0016  67.0238  1.86230697 55355
BEIDOU-3 M4 (C22)       
1 43207U 18018A   26060.27328956 -.00000001  00000+0  00000+0 0  9990
2 43207  56.5572  66.7052 0006849 350.3261   9.6997  1.86230768 54731
BEIDOU-3 M3 (C21)       
1 43208U 18018B   26060.33973838 -.00000001  00000+0  00000+0 0  9993
2 43208  56.5566  66.7071 0009892 319.3285  40.6363  1.86230859 54731
BEIDOU-3 M9 (C29)       
1 43245U 18029A   26060.01989255 -.00000042  00000+0  00000+0 0  9996
2 43245  54.2912 303.7325 0000921  20.5005 339.5630  1.86227979 53884
BEIDOU-3 M10 (C30)      
1 43246U 18029B   26059.95478111 -.00000042  00000+0  00000+0 0  9992
2 43246  54.2888 303.7627 0005048  21.6630 338.4180  1.86228901 53865
BEIDOU-2 IGSO-7 (C16)   
1 43539U 18057A   26056.73984515 -.00000161  00000+0  00000+0 0  9993
2 43539  55.1859 164.0342 0099962 236.5988 133.5173  1.00284731 28015
BEIDOU-3 M5 (C23)       
1 43581U 18062A   26059.64194559 -.00000030  00000+0  00000+0 0  9995
2 43581  54.0883 185.9939 0002142 311.6058  48.3275  1.86228457 51613
BEIDOU-3 M6 (C24)       
1 43582U 18062B   26060.57875611 -.00000031  00000+0  00000+0 0  9996
2 43582  54.0878 185.9512 0006293  43.8438 316.1571  1.86227492 51637
BEIDOU-3 M12 (C26)      
1 43602U 18067A   26060.51717931 -.00000032  00000+0  00000+0 0  9999
2 43602  54.1828 184.6910 0008591  39.9303 320.0854  1.86227628 51116
BEIDOU-3 M11 (C25)      
1 43603U 18067B   26060.65191906 -.00000031  00000+0  00000+0 0  9992
2 43603  54.1804 184.6503 0005014  34.6567 325.3287  1.86227030 51148
BEIDOU-3 M13 (C32)      
1 43622U 18072A   26060.60785545 -.00000003  00000+0  00000+0 0  9991
2 43622  56.5301  66.2084 0008873 307.3974  52.5586  1.86230799 50656
BEIDOU-3 M14 (C33)      
1 43623U 18072B   26060.47331411 -.00000003  00000+0  00000+0 0  9996
2 43623  56.5318  66.2068 0006336 328.5242  31.4753  1.86230828 50646
BEIDOU-3 M16 (C35)      
1 43647U 18078A   26060.09325671 -.00000042  00000+0  00000+0 0  9990
2 43647  54.1872 303.7769 0008416  30.5698 329.5390  1.86232242 50149
BEIDOU-3 M15 (C34)      
1 43648U 18078B   26060.75950487 -.00000045  00000+0  00000+0 0  9996
2 43648  54.1830 303.7545 0005323  37.6187 322.4788  1.86232013 50173
BEIDOU-3 G1 (C59)       
1 43683U 18085A   26060.85072451 -.00000296  00000+0  00000+0 0  9998
2 43683   2.8036 100.4652 0001273  32.4166 113.0720  1.00269262 26985
BEIDOU-3 M17 (C36)      
1 43706U 18093A   26060.44179963 -.00000031  00000+0  00000+0 0  9991
2 43706  54.1716 185.9513 0006947 297.5558 102.4053  1.86228310 49532
BEIDOU-3 M18 (C37)      
1 43707U 18093B   26060.24432845 -.00000031  00000+0  00000+0 0  9991
2 43707  54.1727 185.9497 0006014 341.9968  17.9329  1.86226359 49526
BEIDOU-3 IGSO-1 (C38)   
1 44204U 19023A   26060.82750718 -.00000200  00000+0  00000+0 0  9992
2 44204  58.5499  38.7521 0026005 236.5575 301.4336  1.00271356  6133
BEIDOU-2 G8 (C01)       
1 44231U 19027A   26060.85114116 -.00000265  00000+0  00000+0 0  9996
2 44231   1.8612  74.7270 0009229 268.6506 267.1740  1.00268379 25006
BEIDOU-3 IGSO-2 (C39)   
1 44337U 19035A   26057.68879618 -.00000176  00000+0  00000+0 0  9995
2 44337  55.2338 159.8353 0038734 206.4752 153.7223  1.00247364 24561
BEIDOU-3 M24 (C46)      
1 44542U 19061A   26060.31434985 -.00000031  00000+0  00000+0 0  9990
2 44542  54.3998 186.3652 0008651  22.0339 337.9537  1.86228845 43782
BEIDOU-3 M23 (C45)      
1 44543U 19061B   26060.10867029 -.00000031  00000+0  00000+0 0  9997
2 44543  54.3976 186.3407 0005102  14.1129 120.2476  1.86227192 43783
BEIDOU-3 IGSO-3 (C40)   
1 44709U 19073A   26059.01325398 -.00000145  00000+0  00000+0 0  9996
2 44709  54.9854 282.0779 0040377 189.1116 170.8905  1.00270708 23363
BEIDOU-3 M22 (C44)      
1 44793U 19078A   26059.07985671 -.00000039  00000+0  00000+0 0  9998
2 44793  54.0347 303.6688 0007221  34.9561 325.1493  1.86231871 42613
BEIDOU-3 M21 (C43)      
1 44794U 19078B   26059.21932407 -.00000040  00000+0  00000+0 0  9996
2 44794  54.0076 303.6269 0005661  36.1333 323.9632  1.86227562 42629
BEIDOU-3 M19 (C41)      
1 44864U 19090A   26060.90307757 -.00000005  00000+0  00000+0 0  9991
2 44864  56.4654  66.3353 0020399 291.2759 314.1354  1.86231170 42233
BEIDOU-3 M20 (C42)      
1 44865U 19090B   26060.65870975 -.00000004  00000+0  00000+0 0  9990
2 44865  56.4667  66.3777 0017810 302.8559 228.3296  1.86231183 42212
BEIDOU-3 G2 (C60)       
1 45344U 20017A   26060.81955983 -.00000156  00000+0  00000+0 0  9993
2 45344   2.6489  45.5130 0002681 299.1137 190.0488  1.00271158 22186
BEIDOU-3 G3 (C61)       
1 45807U 20040A   26059.61329310 -.00000370  00000+0  00000+0 0  9996
2 45807   2.1795  67.0969 0004911 316.5656 105.9394  1.00264554 20981
BEIDOU-3 G4 (C62)       
1 56564U 23066A   26060.88576417 -.00000129  00000+0  00000+0 0  9994
2 56564   0.6535 310.5454 0001865 163.4833 164.5491  1.00272015 10310
BEIDOU-3 M28 (C50)      
1 58654U 23207A   26060.37076319 -.00000005  00000+0  00000+0 0  9996
2 58654  55.6573  65.9389 0004877 301.8418  58.1480  1.86229613 14832
BEIDOU-3 M26 (C48)      
1 58655U 23207B   26060.16823854 -.00000004  00000+0  00000+0 0  9997
2 58655  55.6592  65.9320 0005710 287.4313  72.5442  1.86229561 14817
BEIDOU-3 M25 (C47)      
1 61186U 24168B   26060.25125882 -.00000047  00000+0  00000+0 0  9990
2 61186  54.5685 305.9942 0004308 317.7219 214.9030  1.86229934  9770
BEIDOU-3 M27 (C49)      
1 61187U 24168C   26060.73505457 -.00000049  00000+0  00000+0 0  9996
2 61187  54.5637 305.9606 0002928  19.0745 252.8978  1.86230115  7253
